SatCatId,ObjectName,LaunchYear,OrbitalPeriod,LaunchMass,StatusCode,Inclination,Status,UcsData,OrbitClassEstimated,LaunchSiteCountry,Owner,UseType,Purpose,LaunchVehicleClass,TLE1,TLE2,MeanMotion,Eccentricity,OrbitClass
56409,STARLINK-6241,2023,95.84,-1.0,+,43.0,Active,0,LEO,USA,USA,Unknown,Unknown,Unknown,1 56409U 23061AM  25170.36859307 -.00000380  00000+0 -13026-4 0  9990,2 56409  43.0016 175.3388 0001363 277.7668  82.3020 15.02531414117292,15.02531414,0.0001363,LEO
56410,STARLINK-6281,2023,95.84,-1.0,+,43.0,Active,0,LEO,USA,USA,Unknown,Unknown,Unknown,1 56410U 23061AN  25170.35416972  .00000874  00000+0  79740-4 0  9999,2 56410  43.0022 175.2292 0001377 279.1365  80.9322 15.02535745117299,15.02535745,0.0001377,LEO
56411,STARLINK-6279,2023,95.84,-1.0,+,43.0,Active,0,LEO,USA,USA,Unknown,Unknown,Unknown,1 56411U 23061AP  25170.36636978  .00000334  00000+0  39796-4 0  9999,2 56411  43.0023 175.3237 0001264 277.9933  82.0766 15.02535841117295,15.02535841,0.0001264,LEO
56412,STARLINK-6278,2023,95.84,-1.0,+,43.0,Active,0,LEO,USA,USA,Unknown,Unknown,Unknown,1 56412U 23061AQ  25170.41508818 -.00000003  00000+0  14862-4 0  9998,2 56412  43.0021 174.8220 0001283 275.7741  84.2955 15.02535106117304,15.02535106,0.0001283,LEO
56413,STARLINK-6258,2023,95.84,-1.0,+,43.0,Active,0,LEO,USA,USA,Unknown,Unknown,Unknown,1 56413U 23061AR  25170.35749892  .00000710  00000+0  67595-4 0  9996,2 56413  43.0021 175.2542 0000954 305.3414  54.7339 15.02544353117298,15.02544353,9.54e-05,LEO
56414,STARLINK-5136,2023,95.84,-1.0,+,43.0,Active,0,LEO,USA,USA,Unknown,Unknown,Unknown,1 56414U 23061AS  25170.34417758  .00000605  00000+0  59863-4 0  9991,2 56414  43.0024 175.1543 0001283 274.8141  85.2555 15.02545664117290,15.02545664,0.0001283,LEO
56415,STARLINK-6268,2023,95.84,-1.0,+,43.0,Active,0,LEO,USA,USA,Unknown,Unknown,Unknown,1 56415U 23061AT  25170.35194506 -.00000322  00000+0 -87801-5 0  9998,2 56415  43.0026 175.2131 0001127 291.2715  68.8006 15.02531365117587,15.02531365,0.0001127,LEO
56416,STARLINK-6260,2023,95.84,-1.0,+,43.0,Active,0,LEO,USA,USA,Unknown,Unknown,Unknown,1 56416U 23061AU  25170.66028942 -.00000037  00000+0  12331-4 0  9990,2 56416  43.0024 161.0798 0001221 271.7534  88.3168 15.02546301117778,15.02546301,0.0001221,LEO
56417,STARLINK-6261,2023,95.84,-1.0,+,43.0,Active,0,LEO,USA,USA,Unknown,Unknown,Unknown,1 56417U 23061AV  25170.41176134 -.00000522  00000+0 -23539-4 0  9993,2 56417  43.0031 174.8013 0001311 268.5222  91.5470 15.02534415117301,15.02534415,0.0001311,LEO
56418,STARLINK-5356,2023,95.84,-1.0,+,43.0,Active,0,LEO,USA,USA,Unknown,Unknown,Unknown,1 56418U 23061AW  25170.24810359 -.00000509  00000+0 -22592-4 0  9992,2 56418  43.0019 163.1463 0001094 288.0864  71.9859 15.02532230117424,15.0253223,0.0001094,LEO
56419,STARLINK-5350,2023,95.84,-1.0,+,43.0,Active,0,LEO,USA,USA,Unknown,Unknown,Unknown,1 56419U 23061AX  25170.34196399  .00000438  00000+0  47465-4 0  9990,2 56419  43.0023 175.1374 0001161 279.8013  80.2698 15.02541257117291,15.02541257,0.0001161,LEO
56420,STARLINK-6272,2023,95.84,-1.0,+,43.0,Active,0,LEO,USA,USA,Unknown,Unknown,Unknown,1 56420U 23061AY  25170.24477086 -.00000115  00000+0  65357-5 0  9990,2 56420  43.0020 163.1212 0001463 287.9818  72.0865 15.02535326117426,15.02535326,0.0001463,LEO
56421,STARLINK-6270,2023,95.84,-1.0,+,43.0,Active,0,LEO,USA,USA,Unknown,Unknown,Unknown,1 56421U 23061AZ  25170.39770478  .00000277  00000+0  35544-4 0  9990,2 56421  43.0027 162.5456 0001287 283.1544  76.9154 15.02536698117444,15.02536698,0.0001287,LEO
56422,STARLINK-6236,2023,95.84,-1.0,+,43.0,Active,0,LEO,USA,USA,Unknown,Unknown,Unknown,1 56422U 23061BA  25169.97219853 -.00000263  00000+0 -44224-5 0  9991,2 56422  43.0029 164.5183 0001306 281.7631  78.3065 15.02540874117380,15.02540874,0.0001306,LEO
56423,STARLINK-6239,2023,95.84,-1.0,+,43.0,Active,0,LEO,USA,USA,Unknown,Unknown,Unknown,1 56423U 23061BB  25170.04200648 -.00000089  00000+0  84764-5 0  9992,2 56423  43.0016 164.1790 0001168 276.5645  83.5064 15.02533961117397,15.02533961,0.0001168,LEO
56424,STARLINK-6242,2023,95.84,-1.0,+,43.0,Active,0,LEO,USA,USA,Unknown,Unknown,Unknown,1 56424U 23061BC  25170.36440387  .00000187  00000+0  28941-4 0  9996,2 56424  43.0014 162.2961 0001341 293.7130  66.3571 15.02536376117449,15.02536376,0.0001341,LEO
56425,STARLINK-6224,2023,95.84,-1.0,+,43.0,Active,0,LEO,USA,USA,Unknown,Unknown,Unknown,1 56425U 23061BD  25170.36773611  .00000109  00000+0  23151-4 0  9998,2 56425  43.0026 162.3214 0001284 280.9961  79.0737 15.02535591117444,15.02535591,0.0001284,LEO
56426,STARLINK-5352,2023,95.84,-1.0,+,43.0,Active,0,LEO,USA,USA,Unknown,Unknown,Unknown,1 56426U 23061BE  25170.41101986  .00000167  00000+0  27422-4 0  9994,2 56426  43.0026 162.6293 0001145 284.5250  75.5466 15.02537066117441,15.02537066,0.0001145,LEO
56427,STARLINK-5724,2023,95.84,-1.0,+,43.0,Active,0,LEO,USA,USA,Unknown,Unknown,Unknown,1 56427U 23061BF  25170.40103278  .00000514  00000+0  53104-4 0  9992,2 56427  43.0027 162.5600 0001549 286.8234  73.2439 15.02538960117448,15.0253896,0.0001549,LEO
56428,STARLINK-6238,2023,95.84,-1.0,+,43.0,Active,0,LEO,USA,USA,Unknown,Unknown,Unknown,1 56428U 23061BG  25170.29126819 -.00000016  00000+0  13901-4 0  9995,2 56428  43.0015 162.6036 0001320 303.1268  56.9448 15.02535422117434,15.02535422,0.000132,LEO
56429,STARLINK-6264,2023,95.84,-1.0,+,43.0,Active,0,LEO,USA,USA,Unknown,Unknown,Unknown,1 56429U 23061BH  25170.35442214 -.00000156  00000+0  35048-5 0  9995,2 56429  43.0025 162.2181 0001394 285.5869  74.4819 15.02532688117443,15.02532688,0.0001394,LEO
56442,TROPICS-05,2023,92.72,-1.0,+,32.73,Active,0,LEO,New Zealand,USA,Unknown,Unknown,Unknown,1 56442U 23062A   25170.15377587  .00020844  00000+0  32085-3 0  9990,2 56442  32.7308 199.8020 0004320 234.4588 125.5692 15.53044870117891,15.5304487,0.000432,LEO
56444,TROPICS-06,2023,92.07,-1.0,+,32.72,Active,0,LEO,New Zealand,USA,Unknown,Unknown,Unknown,1 56444U 23062C   25170.24660620  .00029619  00000+0  30076-3 0  9992,2 56444  32.7241 177.5452 0005656 211.7249 148.3096 15.63984368118096,15.63984368,0.0005656,LEO
56448,STARLINK-5990,2023,96.11,-1.0,+,70.0,Active,0,LEO,USA,USA,Unknown,Unknown,Unknown,1 56448U 23064A   25170.18366603  .00000127  00000+0  18438-4 0  9997,2 56448  70.0001  88.9215 0002917 269.1484  90.9340 14.98335458116130,14.98335458,0.0002917,LEO
56449,STARLINK-5993,2023,96.11,-1.0,+,70.0,Active,0,LEO,USA,USA,Unknown,Unknown,Unknown,1 56449U 23064B   25170.20437314 -.00000302  00000+0 -17476-4 0  9997,2 56449  70.0001  88.9929 0002899 268.8160  91.2667 14.98332741116137,14.98332741,0.0002899,LEO
56450,STARLINK-5970,2023,96.11,-1.0,+,70.0,Active,0,LEO,USA,USA,Unknown,Unknown,Unknown,1 56450U 23064C   25170.91668981 -.00041695  00000+0 -35047-2 0  9995,2 56450  70.0013  87.0470 0003106 267.3373 108.0229 14.98359555116240,14.98359555,0.0003106,LEO
56451,STARLINK-5985,2023,96.11,-1.0,+,70.0,Active,0,LEO,USA,USA,Unknown,Unknown,Unknown,1 56451U 23064D   25170.20019590  .00000590  00000+0  57222-4 0  9992,2 56451  69.9998  88.9790 0003126 271.3621  88.7180 14.98332591116137,14.98332591,0.0003126,LEO
56452,STARLINK-5986,2023,96.11,-1.0,+,70.0,Active,0,LEO,USA,USA,Unknown,Unknown,Unknown,1 56452U 23064E   25170.19602346  .00001214  00000+0  10947-3 0  9994,2 56452  69.9997  88.9642 0002912 268.3074  91.7751 14.98340103115778,14.98340103,0.0002912,LEO
56453,STARLINK-5935,2023,96.11,-1.0,+,70.0,Active,0,LEO,USA,USA,Unknown,Unknown,Unknown,1 56453U 23064F   25170.19185078  .00000043  00000+0  11355-4 0  9997,2 56453  69.9997  88.9493 0002833 268.4102  91.6733 14.98335031115771,14.98335031,0.0002833,LEO
56454,STARLINK-5959,2023,96.11,-1.0,+,70.0,Active,0,LEO,USA,USA,Unknown,Unknown,Unknown,1 56454U 23064G   25170.50478127  .00001143  00000+0  10358-3 0  9996,2 56454  70.0002  88.0360 0002671 266.1226  93.9627 14.98326092115828,14.98326092,0.0002671,LEO
56455,STARLINK-5987,2023,96.11,-1.0,+,70.0,Active,0,LEO,USA,USA,Unknown,Unknown,Unknown,1 56455U 23064H   25170.50060974 -.00000894  00000+0 -67124-4 0  9992,2 56455  69.9999  88.0204 0002793 268.8775  91.2064 14.98339851115824,14.98339851,0.0002793,LEO
56456,STARLINK-5995,2023,96.13,-1.0,+,70.0,Active,0,LEO,USA,USA,Unknown,Unknown,Unknown,1 56456U 23064J   25170.17972608 -.00047587  00000+0 -40477-2 0  9992,2 56456  69.9999  88.9077 0001959 279.1576  80.9361 14.97947296115775,14.97947296,0.0001959,LEO
56457,STARLINK-5994,2023,96.11,-1.0,+,70.0,Active,0,LEO,USA,USA,Unknown,Unknown,Unknown,1 56457U 23064K   25170.50895485  .00000167  00000+0  21823-4 0  9994,2 56457  70.0006  88.0493 0002827 269.6801  90.4034 14.98330703115820,14.98330703,0.0002827,LEO
56458,STARLINK-6050,2023,96.11,-1.0,+,70.0,Active,0,LEO,USA,USA,Unknown,Unknown,Unknown,1 56458U 23064L   25170.18349870  .00000288  00000+0  31912-4 0  9995,2 56458  69.9999  88.9186 0002908 268.6032  91.4794 14.98334605116136,14.98334605,0.0002908,LEO
56459,STARLINK-6048,2023,96.11,-1.0,+,70.0,Active,0,LEO,USA,USA,Unknown,Unknown,Unknown,1 56459U 23064M   25170.21703230 -.00000019  00000+0  61990-5 0  9997,2 56459  70.0002  88.6360 0002886 268.7071  91.3757 14.98334749115771,14.98334749,0.0002886,LEO
56460,STARLINK-6047,2023,96.11,-1.0,+,70.0,Active,0,LEO,USA,USA,Unknown,Unknown,Unknown,1 56460U 23064N   25170.09587245 -.00000213  00000+0 -10084-4 0  9995,2 56460  70.0007  89.0168 0002773 266.4925  93.5917 14.98329169115768,14.98329169,0.0002773,LEO
56461,STARLINK-6037,2023,96.11,-1.0,+,70.0,Active,0,LEO,USA,USA,Unknown,Unknown,Unknown,1 56461U 23064P   25170.47973502 -.00000434  00000+0 -28612-4 0  9994,2 56461  70.0003  87.9457 0002761 268.5603  91.5240 14.98332857115828,14.98332857,0.0002761,LEO
56462,STARLINK-6045,2023,96.11,-1.0,+,70.0,Active,0,LEO,USA,USA,Unknown,Unknown,Unknown,1 56462U 23064Q   25170.09973606 -.00000078  00000+0  12358-5 0  9992,2 56462  70.0001  48.8581 0002789 266.6989  93.3851 14.98335501116757,14.98335501,0.0002789,LEO
